BEIDOU-3 M28            
1 58654U 23207A   26162.39272009 -.00000056  00000+0  00000+0 0  9991
2 58654  55.7478  62.4986 0003416 345.3912  14.6217  1.86229663 16733
BEIDOU-3 M26            
1 58655U 23207B   26161.11630189 -.00000052  00000+0  00000+0 0  9994
2 58655  55.7488  62.5282 0003349 318.7202  41.2779  1.86229681 16690
GSAT0225 (GALILEO 29)   
1 59598U 24079A   26160.48196544  .00000021  00000+0  00000+0 0  9995
2 59598  55.1155 101.2960 0001734 292.0981 244.7042  1.70474016 13181
GSAT0227 (GALILEO 30)   
1 59600U 24079C   26159.20410498  .00000025  00000+0  00000+0 0  9998
2 59600  55.1096 101.3297 0001920  44.5115 315.4782  1.70474042 13219
GSAT0232 (GALILEO 32)   
1 61182U 24167A   26162.43445970  .00000057  00000+0  00000+0 0  9991
2 61182  55.1864 221.4720 0006123 225.5237 172.5856  1.70474248 10782
GSAT0226 (GALILEO 31)   
1 61183U 24167B   26162.86255495  .00000058  00000+0  00000+0 0  9991
2 61183  55.1853 221.4675 0002850 223.7122 168.4672  1.70474203 10765
BEIDOU-3 M25            
1 61186U 24168B   26162.82349315 -.00000068  00000+0  00000+0 0  9998
2 61186  54.4787 302.4293 0003011 302.2939 239.6212  1.86229887 11687
BEIDOU-3 M27            
1 61187U 24168C   26162.93527027 -.00000068  00000+0  00000+0 0  9999
2 61187  54.4740 302.4084 0001630  49.9972 341.8852  1.86229955  9164
NAVSTAR 83 (USA 440)    
1 62339U 24242A   26161.86496509 -.00000065  00000+0  00000+0 0  9990
2 62339  54.8505 334.4380 0017308   3.9284 359.9607  2.00571298 11131
QZS-6 (MICHIBIKI-6)     
1 62876U 25023A   26162.97166134 -.00000217  00000+0  00000+0 0  9994
2 62876   0.0404  63.1099 0001783  25.6218 251.8967  1.00272255  4893
COSMOS 2584 [GLONASS-K2]
1 63130U 25042A   26159.22437978 -.00000015  00000+0  00000+0 0  9996
2 63130  65.0792  73.1067 0005828 228.4476 131.5246  2.13103875  9858
NAVSTAR 84 (USA 545)    
1 64202U 25116A   26155.36633038 -.00000073  00000+0  00000+0 0  9999
2 64202  55.2259  31.6468 0008452 337.8257 196.1658  2.00577081  7616
COSMOS 2596 [GLONASS-K1]
1 65590U 25206B   26161.38985729 -.00000039  00000+0  00000+0 0  9998
2 65590  64.6376 315.2225 0011087 312.7926  24.8898  2.13100656  5767
GSAT0233 (GALILEO 33)   
1 67160U 25302A   26157.66258742  .00000023  00000+0  00000+0 0  9996
2 67160  54.3305 102.4316 0001324 236.8649 300.4651  1.70474269  2941
GSAT0234 (GALILEO 34)   
1 67162U 25302C   26162.65313341  .00000008  00000+0  00000+0 0  9993
2 67162  54.3333 102.2882 0003065 306.8400 233.4168  1.70474004  3088
NAVSTAR 85 (USA 581)    
1 67588U 26017A   26159.22322786  .00000005  00000+0  00000+0 0  9998
2 67588  55.0831  89.1152 0021773 257.0982 102.6538  2.00571164431433
NAVSTAR 86 (USA 585)    
1 68791U 26087A   26158.43909353  .00000057  00000+0  00000+0 0  9992
2 68791  54.9638 208.1735 0020931 107.2972 251.8874  2.00569573   638
